{"type":"FeatureCollection","features":[{"type":"Feature","properties":{"kode":"kep-seribu","nama":"Kepulauan Seribu"},"geometry":{"type":"Polygon","coordinates":[[[106.581872,-5.61028],[106.57521,-5.61493],[106.573883,-5.610859],[106.581872,-5.61028]]]}},{"type":"Feature","properties":{"kode":"jak-bar","nama":"Jakarta Barat"},"geometry":{"type":"Polygon","coordinates":[[[106.708817,-6.09606],[106.76384,-6.14047],[106.80272700000012,-6.13558],[106.82764,-6.16099],[106.810082,-6.1836],[106.782563,-6.20833],[106.738822,-6.2225],[106.68875900000012,-6.17421],[106.689162,-6.10467],[106.708817,-6.09606]]]}},{"type":"Feature","properties":{"kode":"jak-pus","nama":"Jakarta Pusat"},"geometry":{"type":"Polygon","coordinates":[[[106.879272,-6.16832],[106.85406,-6.20174],[106.82505,-6.20509],[106.79818000000012,-6.21647],[106.810082,-6.1836],[106.82764,-6.16099],[106.836875,-6.145779],[106.859254,-6.153],[106.879272,-6.16832]]]}},{"type":"Feature","properties":{"kode":"jak-sel","nama":"Jakarta Selatan"},"geometry":{"type":"Polygon","coordinates":[[[106.851571,-6.21001],[106.867416,-6.23519],[106.850226,-6.28242],[106.857406,-6.30592],[106.842553,-6.34836],[106.801567,-6.36402],[106.808418,-6.31867],[106.768936,-6.30048],[106.752472,-6.26246],[106.724847,-6.22902],[106.769249,-6.21837],[106.79818000000012,-6.21647],[106.82505,-6.20509],[106.851571,-6.21001]]]}},{"type":"Feature","properties":{"kode":"jak-tim","nama":"Jakarta Timur"},"geometry":{"type":"Polygon","coordinates":[[[106.972527,-6.14771],[106.95539,-6.22271],[106.90916,-6.26396],[106.922227,-6.3067],[106.909447,-6.37546],[106.862702,-6.35752],[106.844513,-6.33006],[106.85403,-6.306249],[106.857811,-6.272],[106.865989,-6.223931],[106.856277,-6.2065],[106.876213,-6.180559],[106.91329900000011,-6.1814],[106.92825,-6.15939],[106.972527,-6.14771]]]}},{"type":"Feature","properties":{"kode":"jak-ut","nama":"Jakarta Utara"},"geometry":{"type":"Polygon","coordinates":[[[106.972839,-6.09111],[106.94531,-6.15773],[106.92526,-6.18231],[106.879272,-6.16832],[106.8501,-6.143998999999894],[106.819451,-6.13727],[106.7773830000001,-6.1435],[106.729751,-6.1242],[106.7344,-6.09852],[106.78472,-6.10889],[106.80047500000012,-6.10847],[106.82222,-6.12111],[106.872498,-6.11194],[106.89611,-6.096109999999896],[106.936669,-6.09639],[106.972839,-6.09111]]]}}]}